{
  "links" : {
    "next" : "https://api.nasa.gov/neo/rest/v1/feed?start_date=1995-10-09&end_date=1995-10-09&detailed=true&api_key=t0TVs3DtDT2H8Oy2Zy8m2eVrNsAVKAexjcZXUckd",
    "prev" : "https://api.nasa.gov/neo/rest/v1/feed?start_date=1995-10-07&end_date=1995-10-07&detailed=true&api_key=t0TVs3DtDT2H8Oy2Zy8m2eVrNsAVKAexjcZXUckd",
    "self" : "https://api.nasa.gov/neo/rest/v1/feed?start_date=1995-10-08&end_date=1995-10-08&detailed=true&api_key=t0TVs3DtDT2H8Oy2Zy8m2eVrNsAVKAexjcZXUckd"
  },
  "element_count" : 6,
  "near_earth_objects" : {
    "1995-10-08" : [ {
      "links" : {
        "self" : "https://api.nasa.gov/neo/rest/v1/neo/2162694?api_key=t0TVs3DtDT2H8Oy2Zy8m2eVrNsAVKAexjcZXUckd"
      },
      "neo_reference_id" : "2162694",
      "name" : "162694 (2000 UH11)",
      "nasa_jpl_url" : "http://ssd.jpl.nasa.gov/sbdb.cgi?sstr=2162694",
      "absolute_magnitude_h" : 19.6,
      "estimated_diameter" : {
        "kilometers" : {
          "estimated_diameter_min" : 0.3195618867,
          "estimated_diameter_max" : 0.7145621017
        },
        "meters" : {
          "estimated_diameter_min" : 319.5618867213,
          "estimated_diameter_max" : 714.5621017269
        },
        "miles" : {
          "estimated_diameter_min" : 0.1985664891,
          "estimated_diameter_max" : 0.4440081677
        },
        "feet" : {
          "estimated_diameter_min" : 1048.4314204307,
          "estimated_diameter_max" : 2344.3639258298
        }
      },
      "is_potentially_hazardous_asteroid" : false,
      "close_approach_data" : [ {
        "close_approach_date" : "1995-10-08",
        "epoch_date_close_approach" : 813135600000,
        "relative_velocity" : {
          "kilometers_per_second" : "24.4364336236",
          "kilometers_per_hour" : "87971.1610448466",
          "miles_per_hour" : "54661.8583725604"
        },
        "miss_distance" : {
          "astronomical" : "0.4367768964",
          "lunar" : "169.9062194824",
          "kilometers" : "65340896",
          "miles" : "40600952"
        },
        "orbiting_body" : "Earth"
      } ],
      "orbital_data" : {
        "orbit_id" : "32",
        "orbit_determination_date" : "2017-09-24 06:23:56",
        "orbit_uncertainty" : "0",
        "minimum_orbit_intersection" : ".22486",
        "jupiter_tisserand_invariant" : "6.606",
        "epoch_osculation" : "2458000.5",
        "eccentricity" : ".4224555943413243",
        "semi_major_axis" : ".8702809086347039",
        "inclination" : "32.22691479429755",
        "ascending_node_longitude" : "29.79498678119862",
        "orbital_period" : "296.5429554833809",
        "perihelion_distance" : ".5026258701335222",
        "perihelion_argument" : "187.3922816371673",
        "aphelion_distance" : "1.237935947135886",
        "perihelion_time" : "2457928.629332034878",
        "mean_anomaly" : "87.25022796535129",
        "mean_motion" : "1.213989384482868",
        "equinox" : "J2000"
      }
    }, {
      "links" : {
        "self" : "https://api.nasa.gov/neo/rest/v1/neo/3429684?api_key=t0TVs3DtDT2H8Oy2Zy8m2eVrNsAVKAexjcZXUckd"
      },
      "neo_reference_id" : "3429684",
      "name" : "(2008 TZ)",
      "nasa_jpl_url" : "http://ssd.jpl.nasa.gov/sbdb.cgi?sstr=3429684",
      "absolute_magnitude_h" : 25.4,
      "estimated_diameter" : {
        "kilometers" : {
          "estimated_diameter_min" : 0.022108281,
          "estimated_diameter_max" : 0.0494356193
        },
        "meters" : {
          "estimated_diameter_min" : 22.1082810359,
          "estimated_diameter_max" : 49.435619262
        },
        "miles" : {
          "estimated_diameter_min" : 0.0137374447,
          "estimated_diameter_max" : 0.0307178602
        },
        "feet" : {
          "estimated_diameter_min" : 72.5337327539,
          "estimated_diameter_max" : 162.1903570994
        }
      },
      "is_potentially_hazardous_asteroid" : false,
      "close_approach_data" : [ {
        "close_approach_date" : "1995-10-08",
        "epoch_date_close_approach" : 813135600000,
        "relative_velocity" : {
          "kilometers_per_second" : "8.178060535",
          "kilometers_per_hour" : "29441.0179258586",
          "miles_per_hour" : "18293.5036106537"
        },
        "miss_distance" : {
          "astronomical" : "0.1240226634",
          "lunar" : "48.2448158264",
          "kilometers" : "18553526",
          "miles" : "11528627"
        },
        "orbiting_body" : "Earth"
      } ],
      "orbital_data" : {
        "orbit_id" : "15",
        "orbit_determination_date" : "2017-04-06 09:02:44",
        "orbit_uncertainty" : "6",
        "minimum_orbit_intersection" : ".00361704",
        "jupiter_tisserand_invariant" : "6.246",
        "epoch_osculation" : "2458000.5",
        "eccentricity" : ".3968356454760085",
        "semi_major_axis" : ".952890381194718",
        "inclination" : "1.504765649482926",
        "ascending_node_longitude" : "9.750383077646701",
        "orbital_period" : "339.7526410992528",
        "perihelion_distance" : ".5747495117054323",
        "perihelion_argument" : "127.4900299636265",
        "aphelion_distance" : "1.331031250684004",
        "perihelion_time" : "2457879.217925290642",
        "mean_anomaly" : "128.5098086481505",
        "mean_motion" : "1.059594412085327",
        "equinox" : "J2000"
      }
    }, {
      "links" : {
        "self" : "https://api.nasa.gov/neo/rest/v1/neo/3581238?api_key=t0TVs3DtDT2H8Oy2Zy8m2eVrNsAVKAexjcZXUckd"
      },
      "neo_reference_id" : "3581238",
      "name" : "(2011 TG2)",
      "nasa_jpl_url" : "http://ssd.jpl.nasa.gov/sbdb.cgi?sstr=3581238",
      "absolute_magnitude_h" : 20.4,
      "estimated_diameter" : {
        "kilometers" : {
          "estimated_diameter_min" : 0.2210828104,
          "estimated_diameter_max" : 0.4943561926
        },
        "meters" : {
          "estimated_diameter_min" : 221.0828103591,
          "estimated_diameter_max" : 494.3561926196
        },
        "miles" : {
          "estimated_diameter_min" : 0.137374447,
          "estimated_diameter_max" : 0.3071786018
        },
        "feet" : {
          "estimated_diameter_min" : 725.3373275385,
          "estimated_diameter_max" : 1621.9035709942
        }
      },
      "is_potentially_hazardous_asteroid" : false,
      "close_approach_data" : [ {
        "close_approach_date" : "1995-10-08",
        "epoch_date_close_approach" : 813135600000,
        "relative_velocity" : {
          "kilometers_per_second" : "13.9990858768",
          "kilometers_per_hour" : "50396.7091564228",
          "miles_per_hour" : "31314.5551977784"
        },
        "miss_distance" : {
          "astronomical" : "0.2735199581",
          "lunar" : "106.399269104",
          "kilometers" : "40918004",
          "miles" : "25425270"
        },
        "orbiting_body" : "Earth"
      } ],
      "orbital_data" : {
        "orbit_id" : "24",
        "orbit_determination_date" : "2017-04-06 08:52:33",
        "orbit_uncertainty" : "1",
        "minimum_orbit_intersection" : ".0511177",
        "jupiter_tisserand_invariant" : "6.484",
        "epoch_osculation" : "2458000.5",
        "eccentricity" : ".5147876322815463",
        "semi_major_axis" : ".8938575799171852",
        "inclination" : "21.09358036965412",
        "ascending_node_longitude" : "12.96137180959469",
        "orbital_period" : "308.6746169245088",
        "perihelion_distance" : ".4337107527547043",
        "perihelion_argument" : "218.6192689166658",
        "aphelion_distance" : "1.354004407079666",
        "perihelion_time" : "2457927.519776900601",
        "mean_anomaly" : "85.1151305460568",
        "mean_motion" : "1.166276655939104",
        "equinox" : "J2000"
      }
    } ]
  }
}